{"fetched_at":"2026-03-29T16:36:15Z","count":15609,"tles":[{"name":"STARLINK-32367","line1":"1 60919U 24154S   26087.78798573  .00001457  00000+0  61296-4 0  9992","line2":"2 60919  53.1597 194.8036 0000813  75.2232 284.8859 15.30206537 89262","category":"Starlink"}]}